COSMOS 1892             
1 18421U 87088A   25310.12276573  .00291832  31420-4  78054-3 0  9997
2 18421  82.4689  84.9981 0005795 297.4178  62.6507 15.94403732 85454
SL-14 R/B               
1 18749U 88001B   25310.26738146  .00000727  00000+0  81600-4 0  9998
2 18749  82.5106 311.4596 0016556 288.2541  71.6873 14.85363383 23703
COSMOS 1933             
1 18958U 88020A   25310.27371382  .00005924  00000+0  30116-3 0  9996
2 18958  82.5159  12.8957 0002820 265.9231  94.1679 15.16676082 31513
SL-3 R/B                
1 19046U 88032B   25310.22232976  .00008491  00000+0  41544-3 0  9997
2 19046  97.5044 289.2171 0025395 307.1353  52.7561 15.18166264 33368
SL-16 R/B               
1 19120U 88039B   25310.31710489  .00000143  00000+0  90415-4 0  9995
2 19120  71.0149 329.4133 0021496 175.6793 184.4522 14.19586816940875
COSMOS 1953             
1 19210U 88050A   25310.26094819  .00007609  00000+0  29128-3 0  9990
2 19210  82.5063 282.1710 0011397 188.0322 172.0736 15.26333647 18943
SL-8 R/B                
1 19257U 88053B   25310.24829681  .00000406  00000+0  14010-3 0  9997
2 19257  74.0479 339.9775 0020341 195.0482 235.8860 14.38825766958845
COSMOS 1975             
1 19573U 88093A   25310.25829807  .00013941  00000+0  54660-3 0  9996
2 19573  82.5221 241.3218 0009456 242.5493 117.4784 15.25602238   579
SL-14 R/B               
1 19574U 88093B   25310.07504501  .00000578  00000+0  63908-4 0  9996
2 19574  82.5304 158.0746 0022319  87.2876  27.8569 14.85492153982688
SL-16 R/B               
1 19650U 88102B   25310.29284428 -.00000108  00000+0 -30296-4 0  9994
2 19650  71.0011  51.1281 0015119 207.6440 152.3881 14.16130992909429
INTERCOSMOS 24          
1 20261U 89080A   25310.11634627  .00000895  00000+0  26432-3 0  9998
2 20261  82.6085 184.7667 1187841 219.4891 131.3557 12.59357288651248
SL-14 R/B               
1 20262U 89080C   25310.25919010  .00000358  00000+0  98253-4 0  9991
2 20262  82.5920 252.4311 1231430 106.9194 267.0356 12.50374139644729
