CCSDS_OMM_VERS = 2.0
CREATION_DATE  = 
ORIGINATOR     = 

OBJECT_NAME    = COSMOS 1892
OBJECT_ID      = 1987-088A
CENTER_NAME    = EARTH
REF_FRAME      = TEME
TIME_SYSTEM    = UTC
MEAN_ELEMENT_THEORY = SGP/SGP4

EPOCH          = 2025-11-06T02:56:46.959072
MEAN_MOTION    = 15.94403732
ECCENTRICITY   = .00057955
INCLINATION    = 82.4689
RA_OF_ASC_NODE = 84.9981
ARG_OF_PERICENTER = 297.4178
MEAN_ANOMALY   = 62.6507

EPHEMERIS_TYPE = 0
CLASSIFICATION_TYPE = U
NORAD_CAT_ID   = 18421
ELEMENT_SET_NO = 999
REV_AT_EPOCH   = 8545
BSTAR          = .78054243E-3
MEAN_MOTION_DOT = .291832E-2
MEAN_MOTION_DDOT = .31419705E-4

CCSDS_OMM_VERS = 2.0
CREATION_DATE  = 
ORIGINATOR     = 

OBJECT_NAME    = SL-14 R/B
OBJECT_ID      = 1988-001B
CENTER_NAME    = EARTH
REF_FRAME      = TEME
TIME_SYSTEM    = UTC
MEAN_ELEMENT_THEORY = SGP/SGP4

EPOCH          = 2025-11-06T06:25:01.758144
MEAN_MOTION    = 14.85363383
ECCENTRICITY   = .00165567
INCLINATION    = 82.5106
RA_OF_ASC_NODE = 311.4596
ARG_OF_PERICENTER = 288.2541
MEAN_ANOMALY   = 71.6873

EPHEMERIS_TYPE = 0
CLASSIFICATION_TYPE = U
NORAD_CAT_ID   = 18749
ELEMENT_SET_NO = 999
REV_AT_EPOCH   = 2370
BSTAR          = .81600234E-4
MEAN_MOTION_DOT = .727E-5
MEAN_MOTION_DDOT = 0

CCSDS_OMM_VERS = 2.0
CREATION_DATE  = 
ORIGINATOR     = 

OBJECT_NAME    = COSMOS 1933
OBJECT_ID      = 1988-020A
CENTER_NAME    = EARTH
REF_FRAME      = TEME
TIME_SYSTEM    = UTC
MEAN_ELEMENT_THEORY = SGP/SGP4

EPOCH          = 2025-11-06T06:34:08.874048
MEAN_MOTION    = 15.16676082
ECCENTRICITY   = .00028203
INCLINATION    = 82.5159
RA_OF_ASC_NODE = 12.8957
ARG_OF_PERICENTER = 265.9231
MEAN_ANOMALY   = 94.1679

EPHEMERIS_TYPE = 0
CLASSIFICATION_TYPE = U
NORAD_CAT_ID   = 18958
ELEMENT_SET_NO = 999
REV_AT_EPOCH   = 3151
BSTAR          = .30116318E-3
MEAN_MOTION_DOT = .5924E-4
MEAN_MOTION_DDOT = 0

CCSDS_OMM_VERS = 2.0
CREATION_DATE  = 
ORIGINATOR     = 

OBJECT_NAME    = SL-3 R/B
OBJECT_ID      = 1988-032B
CENTER_NAME    = EARTH
REF_FRAME      = TEME
TIME_SYSTEM    = UTC
MEAN_ELEMENT_THEORY = SGP/SGP4

EPOCH          = 2025-11-06T05:20:09.291264
MEAN_MOTION    = 15.18166264
ECCENTRICITY   = .00253957
INCLINATION    = 97.5044
RA_OF_ASC_NODE = 289.2171
ARG_OF_PERICENTER = 307.1353
MEAN_ANOMALY   = 52.7561

EPHEMERIS_TYPE = 0
CLASSIFICATION_TYPE = U
NORAD_CAT_ID   = 19046
ELEMENT_SET_NO = 999
REV_AT_EPOCH   = 3336
BSTAR          = .41544166E-3
MEAN_MOTION_DOT = .8491E-4
MEAN_MOTION_DDOT = 0

CCSDS_OMM_VERS = 2.0
CREATION_DATE  = 
ORIGINATOR     = 

OBJECT_NAME    = SL-16 R/B
OBJECT_ID      = 1988-039B
CENTER_NAME    = EARTH
REF_FRAME      = TEME
TIME_SYSTEM    = UTC
MEAN_ELEMENT_THEORY = SGP/SGP4

EPOCH          = 2025-11-06T07:36:37.862496
MEAN_MOTION    = 14.19586816
ECCENTRICITY   = .00214965
INCLINATION    = 71.0149
RA_OF_ASC_NODE = 329.4133
ARG_OF_PERICENTER = 175.6793
MEAN_ANOMALY   = 184.4522

EPHEMERIS_TYPE = 0
CLASSIFICATION_TYPE = U
NORAD_CAT_ID   = 19120
ELEMENT_SET_NO = 999
REV_AT_EPOCH   = 94087
BSTAR          = .90414662E-4
MEAN_MOTION_DOT = .143E-5
MEAN_MOTION_DDOT = 0

CCSDS_OMM_VERS = 2.0
CREATION_DATE  = 
ORIGINATOR     = 

OBJECT_NAME    = COSMOS 1953
OBJECT_ID      = 1988-050A
CENTER_NAME    = EARTH
REF_FRAME      = TEME
TIME_SYSTEM    = UTC
MEAN_ELEMENT_THEORY = SGP/SGP4

EPOCH          = 2025-11-06T06:15:45.923616
MEAN_MOTION    = 15.26333647
ECCENTRICITY   = .00113977
INCLINATION    = 82.5063
RA_OF_ASC_NODE = 282.1710
ARG_OF_PERICENTER = 188.0322
MEAN_ANOMALY   = 172.0736

EPHEMERIS_TYPE = 0
CLASSIFICATION_TYPE = U
NORAD_CAT_ID   = 19210
ELEMENT_SET_NO = 999
REV_AT_EPOCH   = 1894
BSTAR          = .29127713E-3
MEAN_MOTION_DOT = .7609E-4
MEAN_MOTION_DDOT = 0

CCSDS_OMM_VERS = 2.0
CREATION_DATE  = 
ORIGINATOR     = 

OBJECT_NAME    = SL-8 R/B
OBJECT_ID      = 1988-053B
CENTER_NAME    = EARTH
REF_FRAME      = TEME
TIME_SYSTEM    = UTC
MEAN_ELEMENT_THEORY = SGP/SGP4

EPOCH          = 2025-11-06T05:57:32.844384
MEAN_MOTION    = 14.38825766
ECCENTRICITY   = .0020341
INCLINATION    = 74.0479
RA_OF_ASC_NODE = 339.9775
ARG_OF_PERICENTER = 195.0482
MEAN_ANOMALY   = 235.8860

EPHEMERIS_TYPE = 0
CLASSIFICATION_TYPE = U
NORAD_CAT_ID   = 19257
ELEMENT_SET_NO = 999
REV_AT_EPOCH   = 95884
BSTAR          = .14010412E-3
MEAN_MOTION_DOT = .406E-5
MEAN_MOTION_DDOT = 0

CCSDS_OMM_VERS = 2.0
CREATION_DATE  = 
ORIGINATOR     = 

OBJECT_NAME    = COSMOS 1975
OBJECT_ID      = 1988-093A
CENTER_NAME    = EARTH
REF_FRAME      = TEME
TIME_SYSTEM    = UTC
MEAN_ELEMENT_THEORY = SGP/SGP4

EPOCH          = 2025-11-06T06:11:56.953248
MEAN_MOTION    = 15.25602238
ECCENTRICITY   = .00094562
INCLINATION    = 82.5221
RA_OF_ASC_NODE = 241.3218
ARG_OF_PERICENTER = 242.5493
MEAN_ANOMALY   = 117.4784

EPHEMERIS_TYPE = 0
CLASSIFICATION_TYPE = U
NORAD_CAT_ID   = 19573
ELEMENT_SET_NO = 999
REV_AT_EPOCH   = 57
BSTAR          = .54660321E-3
MEAN_MOTION_DOT = .13941E-3
MEAN_MOTION_DDOT = 0

CCSDS_OMM_VERS = 2.0
CREATION_DATE  = 
ORIGINATOR     = 

OBJECT_NAME    = SL-14 R/B
OBJECT_ID      = 1988-093B
CENTER_NAME    = EARTH
REF_FRAME      = TEME
TIME_SYSTEM    = UTC
MEAN_ELEMENT_THEORY = SGP/SGP4

EPOCH          = 2025-11-06T01:48:03.888864
MEAN_MOTION    = 14.85492153
ECCENTRICITY   = .00223199
INCLINATION    = 82.5304
RA_OF_ASC_NODE = 158.0746
ARG_OF_PERICENTER = 87.2876
MEAN_ANOMALY   = 27.8569

EPHEMERIS_TYPE = 0
CLASSIFICATION_TYPE = U
NORAD_CAT_ID   = 19574
ELEMENT_SET_NO = 999
REV_AT_EPOCH   = 98268
BSTAR          = .63907619E-4
MEAN_MOTION_DOT = .578E-5
MEAN_MOTION_DDOT = 0

CCSDS_OMM_VERS = 2.0
CREATION_DATE  = 
ORIGINATOR     = 

OBJECT_NAME    = SL-16 R/B
OBJECT_ID      = 1988-102B
CENTER_NAME    = EARTH
REF_FRAME      = TEME
TIME_SYSTEM    = UTC
MEAN_ELEMENT_THEORY = SGP/SGP4

EPOCH          = 2025-11-06T07:01:41.745792
MEAN_MOTION    = 14.16130992
ECCENTRICITY   = .00151198
INCLINATION    = 71.0011
RA_OF_ASC_NODE = 51.1281
ARG_OF_PERICENTER = 207.6440
MEAN_ANOMALY   = 152.3881

EPHEMERIS_TYPE = 0
CLASSIFICATION_TYPE = U
NORAD_CAT_ID   = 19650
ELEMENT_SET_NO = 999
REV_AT_EPOCH   = 90942
BSTAR          = -.30295789E-4
MEAN_MOTION_DOT = -.108E-5
MEAN_MOTION_DDOT = 0

CCSDS_OMM_VERS = 2.0
CREATION_DATE  = 
ORIGINATOR     = 

OBJECT_NAME    = INTERCOSMOS 24
OBJECT_ID      = 1989-080A
CENTER_NAME    = EARTH
REF_FRAME      = TEME
TIME_SYSTEM    = UTC
MEAN_ELEMENT_THEORY = SGP/SGP4

EPOCH          = 2025-11-06T02:47:32.317728
MEAN_MOTION    = 12.59357288
ECCENTRICITY   = .11878414
INCLINATION    = 82.6085
RA_OF_ASC_NODE = 184.7667
ARG_OF_PERICENTER = 219.4891
MEAN_ANOMALY   = 131.3557

EPHEMERIS_TYPE = 0
CLASSIFICATION_TYPE = U
NORAD_CAT_ID   = 20261
ELEMENT_SET_NO = 999
REV_AT_EPOCH   = 65124
BSTAR          = .26431642E-3
MEAN_MOTION_DOT = .895E-5
MEAN_MOTION_DDOT = 0

CCSDS_OMM_VERS = 2.0
CREATION_DATE  = 
ORIGINATOR     = 

OBJECT_NAME    = SL-14 R/B
OBJECT_ID      = 1989-080C
CENTER_NAME    = EARTH
REF_FRAME      = TEME
TIME_SYSTEM    = UTC
MEAN_ELEMENT_THEORY = SGP/SGP4

EPOCH          = 2025-11-06T06:13:14.024640
MEAN_MOTION    = 12.50374139
ECCENTRICITY   = .12314301
INCLINATION    = 82.5920
RA_OF_ASC_NODE = 252.4311
ARG_OF_PERICENTER = 106.9194
MEAN_ANOMALY   = 267.0356

EPHEMERIS_TYPE = 0
CLASSIFICATION_TYPE = U
NORAD_CAT_ID   = 20262
ELEMENT_SET_NO = 999
REV_AT_EPOCH   = 64472
BSTAR          = .98252706E-4
MEAN_MOTION_DOT = .358E-5
MEAN_MOTION_DDOT = 0

